sat00574
1 00574U 63014A   20046.76544979 -.00000004  00000-0 -29635-2 0  9996
2 00574  87.3281  56.2693 0035686 290.2484  69.4535  8.65271970 17673
